{
    "links": {
        "self": "http://www.neowsapp.com/rest/v1/neo/54016621?api_key=iIulBulltgU6a56xZRHN4H3l9WmuAYTsLGpBGhQ2"
    },
    "id": "54016621",
    "neo_reference_id": "54016621",
    "name": "(2020 HJ2)",
    "designation": "2020 HJ2",
    "nasa_jpl_url": "http://ssd.jpl.nasa.gov/sbdb.cgi?sstr=54016621",
    "absolute_magnitude_h": 24.76,
    "estimated_diameter": {
        "kilometers": {
            "estimated_diameter_min": 0.0296862251,
            "estimated_diameter_max": 0.0663804174
        },
        "meters": {
            "estimated_diameter_min": 29.686225126,
            "estimated_diameter_max": 66.3804173771
        },
        "miles": {
            "estimated_diameter_min": 0.0184461594,
            "estimated_diameter_max": 0.0412468663
        },
        "feet": {
            "estimated_diameter_min": 97.3957548424,
            "estimated_diameter_max": 217.7835285475
        }
    },
    "is_potentially_hazardous_asteroid": false,
    "close_approach_data": [
        {
            "close_approach_date": "2020-04-24",
            "close_approach_date_full": "2020-Apr-24 15:45",
            "epoch_date_close_approach": 1587743100000,
            "relative_velocity": {
                "kilometers_per_second": "9.6741721691",
                "kilometers_per_hour": "34827.0198088385",
                "miles_per_hour": "21640.1557251086"
            },
            "miss_distance": {
                "astronomical": "0.0532598172",
                "lunar": "20.7180688908",
                "kilometers": "7967555.209709364",
                "miles": "4950809.2352386632"
            },
            "orbiting_body": "Earth"
        }
    ],
    "orbital_data": {
        "orbit_id": "3",
        "orbit_determination_date": "2020-04-28 07:10:57",
        "first_observation_date": "2020-04-19",
        "last_observation_date": "2020-04-28",
        "data_arc_in_days": 9,
        "observations_used": 31,
        "orbit_uncertainty": "8",
        "minimum_orbit_intersection": ".0141883",
        "jupiter_tisserand_invariant": "3.697",
        "epoch_osculation": "2458960.5",
        "eccentricity": ".4998740616371568",
        "semi_major_axis": "1.974671719534369",
        "inclination": "5.494826571778916",
        "ascending_node_longitude": "54.23131998160947",
        "orbital_period": "1013.539751281964",
        "perihelion_distance": ".9875845466906952",
        "perihelion_argument": "189.3818236196637",
        "aphelion_distance": "2.961758892378042",
        "perihelion_time": "2458986.432252149108",
        "mean_anomaly": "350.789102487721",
        "mean_motion": ".3551908048447614",
        "equinox": "J2000",
        "orbit_class": {
            "orbit_class_type": "APO",
            "orbit_class_description": "Near-Earth asteroid orbits which cross the Earth’s orbit similar to that of 1862 Apollo",
            "orbit_class_range": "a (semi-major axis) > 1.0 AU; q (perihelion) < 1.017 AU"
        }
    },
    "is_sentry_object": false
}